[{"OBJECT_NAME":"ATLAS CENTAUR 2","OBJECT_ID":"1963-047A","EPOCH":"2026-03-05T19:12:23.455872","MEAN_MOTION":14.12053945,"ECCENTRICITY":0.05477711,"INCLINATION":30.3516,"RA_OF_ASC_NODE":217.3796,"ARG_OF_PERICENTER":46.0087,"MEAN_ANOMALY":318.4365,"EPHEMERIS_TYPE":0,"CLASSIFICATION_TYPE":"U","NORAD_CAT_ID":694,"ELEMENT_SET_NO":999,"REV_AT_EPOCH":13107,"BSTAR":0.00022415989,"MEAN_MOTION_DOT":1.912e-5,"MEAN_MOTION_DDOT":0},{"OBJECT_NAME":"THOR AGENA D R/B","OBJECT_ID":"1964-002A","EPOCH":"2026-03-06T07:30:07.091712","MEAN_MOTION":14.34017839,"ECCENTRICITY":0.00319086,"INCLINATION":99.1228,"RA_OF_ASC_NODE":78.466,"ARG_OF_PERICENTER":268.2467,"MEAN_ANOMALY":91.5061,"EPHEMERIS_TYPE":0,"CLASSIFICATION_TYPE":"U","NORAD_CAT_ID":733,"ELEMENT_SET_NO":999,"REV_AT_EPOCH":23781,"BSTAR":0.00012664073,"MEAN_MOTION_DOT":3.06e-6,"MEAN_MOTION_DDOT":0},{"OBJECT_NAME":"SL-3 R/B","OBJECT_ID":"1964-053B","EPOCH":"2026-03-06T03:11:59.316288","MEAN_MOTION":14.61364246,"ECCENTRICITY":0.00796156,"INCLINATION":65.0789,"RA_OF_ASC_NODE":341.6631,"ARG_OF_PERICENTER":293.3488,"MEAN_ANOMALY":65.925,"EPHEMERIS_TYPE":0,"CLASSIFICATION_TYPE":"U","NORAD_CAT_ID":877,"ELEMENT_SET_NO":999,"REV_AT_EPOCH":26627,"BSTAR":0.00010213568,"MEAN_MOTION_DOT":4.03e-6,"MEAN_MOTION_DDOT":0},{"OBJECT_NAME":"SL-8 R/B","OBJECT_ID":"1967-045B","EPOCH":"2026-03-06T06:04:47.489952","MEAN_MOTION":14.4561909,"ECCENTRICITY":0.00640499,"INCLINATION":74.0139,"RA_OF_ASC_NODE":354.5059,"ARG_OF_PERICENTER":1.5789,"MEAN_ANOMALY":358.5558,"EPHEMERIS_TYPE":0,"CLASSIFICATION_TYPE":"U","NORAD_CAT_ID":2802,"ELEMENT_SET_NO":999,"REV_AT_EPOCH":8852,"BSTAR":0.00017927379,"MEAN_MOTION_DOT":6.21e-6,"MEAN_MOTION_DDOT":0},{"OBJECT_NAME":"SL-8 R/B","OBJECT_ID":"1968-040B","EPOCH":"2026-03-06T01:11:04.566624","MEAN_MOTION":15.0322683,"ECCENTRICITY":0.00240001,"INCLINATION":74.0328,"RA_OF_ASC_NODE":321.1327,"ARG_OF_PERICENTER":146.2459,"MEAN_ANOMALY":214.0264,"EPHEMERIS_TYPE":0,"CLASSIFICATION_TYPE":"U","NORAD_CAT_ID":3230,"ELEMENT_SET_NO":999,"REV_AT_EPOCH":8946,"BSTAR":0.00030040682,"MEAN_MOTION_DOT":4.052e-5,"MEAN_MOTION_DDOT":0},{"OBJECT_NAME":"OAO 2","OBJECT_ID":"1968-110A","EPOCH":"2026-03-05T23:43:49.133568","MEAN_MOTION":14.47305127,"ECCENTRICITY":0.00054406,"INCLINATION":34.9932,"RA_OF_ASC_NODE":285.8875,"ARG_OF_PERICENTER":175.882,"MEAN_ANOMALY":184.1916,"EPHEMERIS_TYPE":0,"CLASSIFICATION_TYPE":"U","NORAD_CAT_ID":3597,"ELEMENT_SET_NO":999,"REV_AT_EPOCH":1856,"BSTAR":9.3255049e-5,"MEAN_MOTION_DOT":3.27e-6,"MEAN_MOTION_DDOT":0},{"OBJECT_NAME":"ISIS 1","OBJECT_ID":"1969-009A","EPOCH":"2026-03-06T06:26:10.440096","MEAN_MOTION":11.30412957,"ECCENTRICITY":0.17078037,"INCLINATION":88.4546,"RA_OF_ASC_NODE":155.6817,"ARG_OF_PERICENTER":96.0637,"MEAN_ANOMALY":283.674,"EPHEMERIS_TYPE":0,"CLASSIFICATION_TYPE":"U","NORAD_CAT_ID":3669,"ELEMENT_SET_NO":999,"REV_AT_EPOCH":34814,"BSTAR":0.00013942295,"MEAN_MOTION_DOT":2.19e-6,"MEAN_MOTION_DDOT":0},{"OBJECT_NAME":"SERT 2","OBJECT_ID":"1970-009A","EPOCH":"2026-03-06T07:54:53.075808","MEAN_MOTION":13.58729524,"ECCENTRICITY":0.00049123,"INCLINATION":99.2755,"RA_OF_ASC_NODE":8.6072,"ARG_OF_PERICENTER":164.0725,"MEAN_ANOMALY":347.7543,"EPHEMERIS_TYPE":0,"CLASSIFICATION_TYPE":"U","NORAD_CAT_ID":4327,"ELEMENT_SET_NO":999,"REV_AT_EPOCH":77943,"BSTAR":8.253487e-5,"MEAN_MOTION_DOT":1.9e-7,"MEAN_MOTION_DDOT":0},{"OBJECT_NAME":"SL-3 R/B","OBJECT_ID":"1971-028B","EPOCH":"2026-03-06T06:12:37.160352","MEAN_MOTION":15.60786473,"ECCENTRICITY":0.00137301,"INCLINATION":81.2347,"RA_OF_ASC_NODE":56.2653,"ARG_OF_PERICENTER":300.4351,"MEAN_ANOMALY":59.5545,"EPHEMERIS_TYPE":0,"CLASSIFICATION_TYPE":"U","NORAD_CAT_ID":5118,"ELEMENT_SET_NO":999,"REV_AT_EPOCH":98813,"BSTAR":0.00053637623,"MEAN_MOTION_DOT":0.00045035,"MEAN_MOTION_DDOT":0},{"OBJECT_NAME":"ASTEX 1","OBJECT_ID":"1971-089A","EPOCH":"2026-03-06T05:39:21.328128","MEAN_MOTION":14.50765605,"ECCENTRICITY":0.00178609,"INCLINATION":92.7125,"RA_OF_ASC_NODE":150.6428,"ARG_OF_PERICENTER":96.0738,"MEAN_ANOMALY":264.2504,"EPHEMERIS_TYPE":0,"CLASSIFICATION_TYPE":"U","NORAD_CAT_ID":5560,"ELEMENT_SET_NO":999,"REV_AT_EPOCH":86180,"BSTAR":0.00016708257,"MEAN_MOTION_DOT":6.58e-6,"MEAN_MOTION_DDOT":0},{"OBJECT_NAME":"SL-8 R/B","OBJECT_ID":"1971-119B","EPOCH":"2026-03-06T07:37:17.882112","MEAN_MOTION":14.3775358,"ECCENTRICITY":0.05494296,"INCLINATION":73.8883,"RA_OF_ASC_NODE":182.0207,"ARG_OF_PERICENTER":149.3613,"MEAN_ANOMALY":214.0888,"EPHEMERIS_TYPE":0,"CLASSIFICATION_TYPE":"U","NORAD_CAT_ID":5730,"ELEMENT_SET_NO":999,"REV_AT_EPOCH":65500,"BSTAR":0.00079229571,"MEAN_MOTION_DOT":0.00015247,"MEAN_MOTION_DDOT":0},{"OBJECT_NAME":"OAO 3 (COPERNICUS)","OBJECT_ID":"1972-065A","EPOCH":"2026-03-05T23:37:57.832896","MEAN_MOTION":14.59994263,"ECCENTRICITY":0.00061129,"INCLINATION":35.0064,"RA_OF_ASC_NODE":318.4249,"ARG_OF_PERICENTER":135.3938,"MEAN_ANOMALY":337.9612,"EPHEMERIS_TYPE":0,"CLASSIFICATION_TYPE":"U","NORAD_CAT_ID":6153,"ELEMENT_SET_NO":999,"REV_AT_EPOCH":84565,"BSTAR":9.9598883e-5,"MEAN_MOTION_DOT":4.64e-6,"MEAN_MOTION_DDOT":0},{"OBJECT_NAME":"ATLAS CENTAUR R/B","OBJECT_ID":"1972-065B","EPOCH":"2026-03-05T23:27:17.769600","MEAN_MOTION":14.77674465,"ECCENTRICITY":0.00339663,"INCLINATION":35.0026,"RA_OF_ASC_NODE":327.5097,"ARG_OF_PERICENTER":337.6368,"MEAN_ANOMALY":22.2852,"EPHEMERIS_TYPE":0,"CLASSIFICATION_TYPE":"U","NORAD_CAT_ID":6155,"ELEMENT_SET_NO":999,"REV_AT_EPOCH":84071,"BSTAR":0.00022302878,"MEAN_MOTION_DOT":1.615e-5,"MEAN_MOTION_DDOT":0},{"OBJECT_NAME":"SL-8 R/B","OBJECT_ID":"1975-112B","EPOCH":"2026-03-06T07:16:49.766592","MEAN_MOTION":14.38201355,"ECCENTRICITY":0.0014505,"INCLINATION":74.0622,"RA_OF_ASC_NODE":25.1406,"ARG_OF_PERICENTER":119.8658,"MEAN_ANOMALY":240.394,"EPHEMERIS_TYPE":0,"CLASSIFICATION_TYPE":"U","NORAD_CAT_ID":8459,"ELEMENT_SET_NO":999,"REV_AT_EPOCH":63138,"BSTAR":0.00011987073,"MEAN_MOTION_DOT":3.38e-6,"MEAN_MOTION_DDOT":0},{"OBJECT_NAME":"SL-3 R/B","OBJECT_ID":"1977-057B","EPOCH":"2026-03-06T05:20:28.796064","MEAN_MOTION":15.45373731,"ECCENTRICITY":0.00062399,"INCLINATION":97.5767,"RA_OF_ASC_NODE":236.991,"ARG_OF_PERICENTER":299.7948,"MEAN_ANOMALY":60.2679,"EPHEMERIS_TYPE":0,"CLASSIFICATION_TYPE":"U","NORAD_CAT_ID":10114,"ELEMENT_SET_NO":999,"REV_AT_EPOCH":66779,"BSTAR":0.00030266389,"MEAN_MOTION_DOT":0.00014375,"MEAN_MOTION_DDOT":0},{"OBJECT_NAME":"SEASAT 1","OBJECT_ID":"1978-064A","EPOCH":"2026-03-06T02:33:36.668160","MEAN_MOTION":14.46156438,"ECCENTRICITY":0.00022475,"INCLINATION":108.0117,"RA_OF_ASC_NODE":117.9811,"ARG_OF_PERICENTER":286.5317,"MEAN_ANOMALY":73.5582,"EPHEMERIS_TYPE":0,"CLASSIFICATION_TYPE":"U","NORAD_CAT_ID":10967,"ELEMENT_SET_NO":999,"REV_AT_EPOCH":50599,"BSTAR":0.00010489425,"MEAN_MOTION_DOT":2.38e-6,"MEAN_MOTION_DDOT":0},{"OBJECT_NAME":"SL-14 R/B","OBJECT_ID":"1979-011B","EPOCH":"2026-03-06T03:50:16.683648","MEAN_MOTION":14.9190302,"ECCENTRICITY":0.00175521,"INCLINATION":82.5212,"RA_OF_ASC_NODE":99.9212,"ARG_OF_PERICENTER":71.3838,"MEAN_ANOMALY":288.9286,"EPHEMERIS_TYPE":0,"CLASSIFICATION_TYPE":"U","NORAD_CAT_ID":11267,"ELEMENT_SET_NO":999,"REV_AT_EPOCH":52825,"BSTAR":6.2069768e-5,"MEAN_MOTION_DOT":6.55e-6,"MEAN_MOTION_DDOT":0}]
