ATLAS CENTAUR 2         
1 00694U 63047A   26064.80027148  .00001912  00000+0  22416-3 0  9997
2 00694  30.3516 217.3796 0547771  46.0087 318.4365 14.12053945131076
THOR AGENA D R/B        
1 00733U 64002A   26065.31258208  .00000306  00000+0  12664-3 0  9993
2 00733  99.1228  78.4660 0031908 268.2467  91.5061 14.34017839237816
SL-3 R/B                
1 00877U 64053B   26065.13332542  .00000403  00000+0  10214-3 0  9999
2 00877  65.0789 341.6631 0079615 293.3488  65.9250 14.61364246266275
SL-8 R/B                
1 02802U 67045B   26065.25332743  .00000621  00000+0  17927-3 0  9999
2 02802  74.0139 354.5059 0064049   1.5789 358.5558 14.45619090 88523
SL-8 R/B                
1 03230U 68040B   26065.04935841  .00004052  00000+0  30041-3 0  9990
2 03230  74.0328 321.1327 0024000 146.2459 214.0264 15.03226830 89466
OAO 2                   
1 03597U 68110A   26064.98876312  .00000327  00000+0  93255-4 0  9991
2 03597  34.9932 285.8875 0005440 175.8820 184.1916 14.47305127 18567
ISIS 1                  
1 03669U 69009A   26065.26817639  .00000219  00000+0  13942-3 0  9992
2 03669  88.4546 155.6817 1707803  96.0637 283.6740 11.30412957348144
SERT 2                  
1 04327U 70009A   26065.32978097  .00000019  00000+0  82535-4 0  9992
2 04327  99.2755   8.6072 0004912 164.0725 347.7543 13.58729524779438
SL-3 R/B                
1 05118U 71028B   26065.25876343  .00045035  00000+0  53638-3 0  9994
2 05118  81.2347  56.2653 0013730 300.4351  59.5545 15.60786473988138
ASTEX 1                 
1 05560U 71089A   26065.23566352  .00000658  00000+0  16708-3 0  9995
2 05560  92.7125 150.6428 0017860  96.0738 264.2504 14.50765605861800
SL-8 R/B                
1 05730U 71119B   26065.31756808  .00015247  00000+0  79230-3 0  9993
2 05730  73.8883 182.0207 0549429 149.3613 214.0888 14.37753580655004
OAO 3 (COPERNICUS)      
1 06153U 72065A   26064.98469714  .00000464  00000+0  99599-4 0  9999
2 06153  35.0064 318.4249 0006112 135.3938 337.9612 14.59994263845659
ATLAS CENTAUR R/B       
1 06155U 72065B   26064.97728900  .00001615  00000+0  22303-3 0  9992
2 06155  35.0026 327.5097 0033966 337.6368  22.2852 14.77674465840713
SL-8 R/B                
1 08459U 75112B   26065.30335378  .00000338  00000+0  11987-3 0  9995
2 08459  74.0622  25.1406 0014505 119.8658 240.3940 14.38201355631385
SL-3 R/B                
1 10114U 77057B   26065.22255551  .00014375  00000+0  30266-3 0  9998
2 10114  97.5767 236.9910 0006239 299.7948  60.2679 15.45373731667792
SEASAT 1                
1 10967U 78064A   26065.10667440  .00000238  00000+0  10489-3 0  9992
2 10967 108.0117 117.9811 0002247 286.5317  73.5582 14.46156438505998
SL-14 R/B               
1 11267U 79011B   26065.15991532  .00000655  00000+0  62070-4 0  9993
2 11267  82.5212  99.9212 0017552  71.3838 288.9286 14.91903020528255
